Date,Time,Fluke,PT100,METAR
4/9/2026,12:20,74.3,74.5,
4/9/2026,12:24,209.7,209.8,METAR KBJI 091715Z AUTO 31008KT 10SM OVC021 M01/M06 A3014 RMK AO2 T10101056
4/9/2026,12:35,32.0,32.1,
4/9/2026,12:46,209.9,210.5,METAR KBJI 091735Z AUTO 29006KT 10SM OVC021 M01/M06 A3014 RMK AO2 T10081056